[{"OBJECT_NAME":"ICEYE-X7","OBJECT_ID":"2020-068L","EPOCH":"2026-03-09T22:52:28.702272","MEAN_MOTION":15.29152508,"ECCENTRICITY":0.00068409,"INCLINATION":97.7412,"RA_OF_ASC_NODE":31.2076,"ARG_OF_PERICENTER":332.3045,"MEAN_ANOMALY":27.7829,"EPHEMERIS_TYPE":0,"CLASSIFICATION_TYPE":"U","NORAD_CAT_ID":46496,"ELEMENT_SET_NO":999,"REV_AT_EPOCH":29961,"BSTAR":0.0005654802,"MEAN_MOTION_DOT":0.00015947,"MEAN_MOTION_DDOT":0},{"OBJECT_NAME":"STARLINK-33555","OBJECT_ID":"2024-220S","EPOCH":"2026-03-09T09:20:26.941344","MEAN_MOTION":15.27602636,"ECCENTRICITY":0.00014517,"INCLINATION":42.9997,"RA_OF_ASC_NODE":207.3737,"ARG_OF_PERICENTER":264.8073,"MEAN_ANOMALY":95.2613,"EPHEMERIS_TYPE":0,"CLASSIFICATION_TYPE":"U","NORAD_CAT_ID":62104,"ELEMENT_SET_NO":999,"REV_AT_EPOCH":7311,"BSTAR":0.0013058826,"MEAN_MOTION_DOT":0.00035873,"MEAN_MOTION_DDOT":0}]
